CCSDS_OMM_VERS = 2.0
CREATION_DATE  = 
ORIGINATOR     = 

OBJECT_NAME    = ATLAS CENTAUR 2
OBJECT_ID      = 1963-047A
CENTER_NAME    = EARTH
REF_FRAME      = TEME
TIME_SYSTEM    = UTC
MEAN_ELEMENT_THEORY = SGP/SGP4

EPOCH          = 2026-02-24T06:06:35.151264
MEAN_MOTION    = 14.12024494
ECCENTRICITY   = .05480521
INCLINATION    = 30.3554
RA_OF_ASC_NODE = 270.7268
ARG_OF_PERICENTER = 321.8836
MEAN_ANOMALY   = 34.4181

EPHEMERIS_TYPE = 0
CLASSIFICATION_TYPE = U
NORAD_CAT_ID   = 694
ELEMENT_SET_NO = 999
REV_AT_EPOCH   = 12972
BSTAR          = .14570626E-3
MEAN_MOTION_DOT = .1299E-4
MEAN_MOTION_DDOT = 0

CCSDS_OMM_VERS = 2.0
CREATION_DATE  = 
ORIGINATOR     = 

OBJECT_NAME    = THOR AGENA D R/B
OBJECT_ID      = 1964-002A
CENTER_NAME    = EARTH
REF_FRAME      = TEME
TIME_SYSTEM    = UTC
MEAN_ELEMENT_THEORY = SGP/SGP4

EPOCH          = 2026-02-23T18:38:32.870112
MEAN_MOTION    = 14.34010874
ECCENTRICITY   = .00320219
INCLINATION    = 99.1230
RA_OF_ASC_NODE = 67.3562
ARG_OF_PERICENTER = 299.8984
MEAN_ANOMALY   = 59.9019

EPHEMERIS_TYPE = 0
CLASSIFICATION_TYPE = U
NORAD_CAT_ID   = 733
ELEMENT_SET_NO = 999
REV_AT_EPOCH   = 23630
BSTAR          = .98203397E-4
MEAN_MOTION_DOT = .227E-5
MEAN_MOTION_DDOT = 0

CCSDS_OMM_VERS = 2.0
CREATION_DATE  = 
ORIGINATOR     = 

OBJECT_NAME    = SL-3 R/B
OBJECT_ID      = 1964-053B
CENTER_NAME    = EARTH
REF_FRAME      = TEME
TIME_SYSTEM    = UTC
MEAN_ELEMENT_THEORY = SGP/SGP4

EPOCH          = 2026-02-24T06:41:23.614656
MEAN_MOTION    = 14.61353056
ECCENTRICITY   = .00791647
INCLINATION    = 65.0783
RA_OF_ASC_NODE = 10.5526
ARG_OF_PERICENTER = 296.4784
MEAN_ANOMALY   = 62.8211

EPHEMERIS_TYPE = 0
CLASSIFICATION_TYPE = U
NORAD_CAT_ID   = 877
ELEMENT_SET_NO = 999
REV_AT_EPOCH   = 26483
BSTAR          = .96131182E-4
MEAN_MOTION_DOT = .372E-5
MEAN_MOTION_DDOT = 0

CCSDS_OMM_VERS = 2.0
CREATION_DATE  = 
ORIGINATOR     = 

OBJECT_NAME    = SL-8 R/B
OBJECT_ID      = 1967-045B
CENTER_NAME    = EARTH
REF_FRAME      = TEME
TIME_SYSTEM    = UTC
MEAN_ELEMENT_THEORY = SGP/SGP4

EPOCH          = 2026-02-24T06:54:57.695328
MEAN_MOTION    = 14.45607271
ECCENTRICITY   = .00636441
INCLINATION    = 74.0126
RA_OF_ASC_NODE = 13.1144
ARG_OF_PERICENTER = 22.6210
MEAN_ANOMALY   = 337.7729

EPHEMERIS_TYPE = 0
CLASSIFICATION_TYPE = U
NORAD_CAT_ID   = 2802
ELEMENT_SET_NO = 999
REV_AT_EPOCH   = 8708
BSTAR          = .14047096E-3
MEAN_MOTION_DOT = .481E-5
MEAN_MOTION_DDOT = 0

CCSDS_OMM_VERS = 2.0
CREATION_DATE  = 
ORIGINATOR     = 

OBJECT_NAME    = SL-8 R/B
OBJECT_ID      = 1968-040B
CENTER_NAME    = EARTH
REF_FRAME      = TEME
TIME_SYSTEM    = UTC
MEAN_ELEMENT_THEORY = SGP/SGP4

EPOCH          = 2026-02-24T04:47:07.106784
MEAN_MOTION    = 15.03149778
ECCENTRICITY   = .00245378
INCLINATION    = 74.0333
RA_OF_ASC_NODE = 341.2550
ARG_OF_PERICENTER = 169.4833
MEAN_ANOMALY   = 190.6874

EPHEMERIS_TYPE = 0
CLASSIFICATION_TYPE = U
NORAD_CAT_ID   = 3230
ELEMENT_SET_NO = 999
REV_AT_EPOCH   = 8798
BSTAR          = .30701214E-3
MEAN_MOTION_DOT = .4134E-4
MEAN_MOTION_DDOT = 0

CCSDS_OMM_VERS = 2.0
CREATION_DATE  = 
ORIGINATOR     = 

OBJECT_NAME    = OAO 2
OBJECT_ID      = 1968-110A
CENTER_NAME    = EARTH
REF_FRAME      = TEME
TIME_SYSTEM    = UTC
MEAN_ELEMENT_THEORY = SGP/SGP4

EPOCH          = 2026-02-24T01:18:30.566880
MEAN_MOTION    = 14.47298265
ECCENTRICITY   = .00048521
INCLINATION    = 34.9947
RA_OF_ASC_NODE = 341.3513
ARG_OF_PERICENTER = 89.3891
MEAN_ANOMALY   = 270.7356

EPHEMERIS_TYPE = 0
CLASSIFICATION_TYPE = U
NORAD_CAT_ID   = 3597
ELEMENT_SET_NO = 999
REV_AT_EPOCH   = 1712
BSTAR          = .68132665E-4
MEAN_MOTION_DOT = .234E-5
MEAN_MOTION_DDOT = 0

CCSDS_OMM_VERS = 2.0
CREATION_DATE  = 
ORIGINATOR     = 

OBJECT_NAME    = ISIS 1
OBJECT_ID      = 1969-009A
CENTER_NAME    = EARTH
REF_FRAME      = TEME
TIME_SYSTEM    = UTC
MEAN_ELEMENT_THEORY = SGP/SGP4

EPOCH          = 2026-02-24T06:23:52.584576
MEAN_MOTION    = 11.30409238
ECCENTRICITY   = .17078142
INCLINATION    = 88.4554
RA_OF_ASC_NODE = 156.7713
ARG_OF_PERICENTER = 116.2433
MEAN_ANOMALY   = 262.3983

EPHEMERIS_TYPE = 0
CLASSIFICATION_TYPE = U
NORAD_CAT_ID   = 3669
ELEMENT_SET_NO = 999
REV_AT_EPOCH   = 34701
BSTAR          = .11009567E-3
MEAN_MOTION_DOT = .178E-5
MEAN_MOTION_DDOT = 0

CCSDS_OMM_VERS = 2.0
CREATION_DATE  = 
ORIGINATOR     = 

OBJECT_NAME    = SERT 2
OBJECT_ID      = 1970-009A
CENTER_NAME    = EARTH
REF_FRAME      = TEME
TIME_SYSTEM    = UTC
MEAN_ELEMENT_THEORY = SGP/SGP4

EPOCH          = 2026-02-24T07:23:27.496032
MEAN_MOTION    = 13.58728626
ECCENTRICITY   = .00045175
INCLINATION    = 99.2741
RA_OF_ASC_NODE = 359.1352
ARG_OF_PERICENTER = 189.7667
MEAN_ANOMALY   = 286.6639

EPHEMERIS_TYPE = 0
CLASSIFICATION_TYPE = U
NORAD_CAT_ID   = 4327
ELEMENT_SET_NO = 999
REV_AT_EPOCH   = 77807
BSTAR          = .10980288E-3
MEAN_MOTION_DOT = .39E-6
MEAN_MOTION_DDOT = 0

CCSDS_OMM_VERS = 2.0
CREATION_DATE  = 
ORIGINATOR     = 

OBJECT_NAME    = SL-3 R/B
OBJECT_ID      = 1971-028B
CENTER_NAME    = EARTH
REF_FRAME      = TEME
TIME_SYSTEM    = UTC
MEAN_ELEMENT_THEORY = SGP/SGP4

EPOCH          = 2026-02-24T06:06:26.597664
MEAN_MOTION    = 15.59907477
ECCENTRICITY   = .00153833
INCLINATION    = 81.2336
RA_OF_ASC_NODE = 68.6105
ARG_OF_PERICENTER = 340.9259
MEAN_ANOMALY   = 19.1415

EPHEMERIS_TYPE = 0
CLASSIFICATION_TYPE = U
NORAD_CAT_ID   = 5118
ELEMENT_SET_NO = 999
REV_AT_EPOCH   = 98657
BSTAR          = .45001234E-3
MEAN_MOTION_DOT = .36552E-3
MEAN_MOTION_DDOT = 0

CCSDS_OMM_VERS = 2.0
CREATION_DATE  = 
ORIGINATOR     = 

OBJECT_NAME    = ASTEX 1
OBJECT_ID      = 1971-089A
CENTER_NAME    = EARTH
REF_FRAME      = TEME
TIME_SYSTEM    = UTC
MEAN_ELEMENT_THEORY = SGP/SGP4

EPOCH          = 2026-02-24T07:16:52.766400
MEAN_MOTION    = 14.50752936
ECCENTRICITY   = .00174896
INCLINATION    = 92.7139
RA_OF_ASC_NODE = 147.4300
ARG_OF_PERICENTER = 125.5017
MEAN_ANOMALY   = 234.7824

EPHEMERIS_TYPE = 0
CLASSIFICATION_TYPE = U
NORAD_CAT_ID   = 5560
ELEMENT_SET_NO = 999
REV_AT_EPOCH   = 86036
BSTAR          = .1421468E-3
MEAN_MOTION_DOT = .559E-5
MEAN_MOTION_DDOT = 0

CCSDS_OMM_VERS = 2.0
CREATION_DATE  = 
ORIGINATOR     = 

OBJECT_NAME    = SL-8 R/B
OBJECT_ID      = 1971-119B
CENTER_NAME    = EARTH
REF_FRAME      = TEME
TIME_SYSTEM    = UTC
MEAN_ELEMENT_THEORY = SGP/SGP4

EPOCH          = 2026-02-23T19:25:08.393088
MEAN_MOTION    = 14.37400483
ECCENTRICITY   = .05514684
INCLINATION    = 73.8867
RA_OF_ASC_NODE = 201.6543
ARG_OF_PERICENTER = 171.1645
MEAN_ANOMALY   = 189.9733

EPHEMERIS_TYPE = 0
CLASSIFICATION_TYPE = U
NORAD_CAT_ID   = 5730
ELEMENT_SET_NO = 999
REV_AT_EPOCH   = 65349
BSTAR          = .82169764E-3
MEAN_MOTION_DOT = .15844E-3
MEAN_MOTION_DDOT = 0

CCSDS_OMM_VERS = 2.0
CREATION_DATE  = 
ORIGINATOR     = 

OBJECT_NAME    = OAO 3 (COPERNICUS)
OBJECT_ID      = 1972-065A
CENTER_NAME    = EARTH
REF_FRAME      = TEME
TIME_SYSTEM    = UTC
MEAN_ELEMENT_THEORY = SGP/SGP4

EPOCH          = 2026-02-24T04:59:11.367744
MEAN_MOTION    = 14.59984921
ECCENTRICITY   = .00060653
INCLINATION    = 35.0068
RA_OF_ASC_NODE = 14.1250
ARG_OF_PERICENTER = 46.9645
MEAN_ANOMALY   = 79.2160

EPHEMERIS_TYPE = 0
CLASSIFICATION_TYPE = U
NORAD_CAT_ID   = 6153
ELEMENT_SET_NO = 999
REV_AT_EPOCH   = 84422
BSTAR          = .80991601E-4
MEAN_MOTION_DOT = .373E-5
MEAN_MOTION_DDOT = 0

